{
  "type": "FeatureCollection",
  "features": [
    {
      "type": "Feature",
      "properties": {
        "norad_id": 34570,
        "name": "COSMOS 2251 DEB",
        "group": "cosmos-2251-debris",
        "lat": 22.157672571451307,
        "lon": 34.216451545364066,
        "alt_km": 808.8184230758197,
        "timestamp": "2025-12-11T05:00:26.702993+00:00",
        "meta_object_name": "COSMOS 2251 DEB",
        "meta_object_id": "1993-036VG",
        "meta_epoch": "2025-12-10T10:15:47.270880",
        "meta_mean_motion": 13.99813899,
        "meta_eccentricity": 0.01902081,
        "meta_inclination": 73.9575,
        "meta_ra_of_asc_node": 222.3032,
        "meta_arg_of_pericenter": 105.3156,
        "meta_mean_anomaly": 75.4929,
        "meta_ephemeris_type": 0,
        "meta_classification_type": "U",
        "meta_norad_cat_id": 34570,
        "meta_element_set_no": 999,
        "meta_rev_at_epoch": 85568,
        "meta_bstar": 0.00064940557,
        "meta_mean_motion_dot": 1.09e-05,
        "meta_mean_motion_ddot": 0,
        "tle_line1": "1 34570U 93036VG  25344.42763045  .00001090  00000+0  64941-3 0  9995",
        "tle_line2": "2 34570  73.9575 222.3032 0190208 105.3156  75.4929 13.99813899855680"
      },
      "geometry": {
        "type": "Point",
        "coordinates": [
          34.216451545364066,
          22.157672571451307
        ]
      }
    },
    {
      "type": "Feature",
      "properties": {
        "norad_id": 34571,
        "name": "COSMOS 2251 DEB",
        "group": "cosmos-2251-debris",
        "lat": 73.23742892555858,
        "lon": -66.53861264200971,
        "alt_km": 749.5664763855348,
        "timestamp": "2025-12-11T05:00:26.703003+00:00",
        "meta_object_name": "COSMOS 2251 DEB",
        "meta_object_id": "1993-036VH",
        "meta_epoch": "2025-12-09T06:09:38.106720",
        "meta_mean_motion": 14.48721172,
        "meta_eccentricity": 0.0066557,
        "meta_inclination": 74.0386,
        "meta_ra_of_asc_node": 188.9585,
        "meta_arg_of_pericenter": 224.7562,
        "meta_mean_anomaly": 134.8218,
        "meta_ephemeris_type": 0,
        "meta_classification_type": "U",
        "meta_norad_cat_id": 34571,
        "meta_element_set_no": 999,
        "meta_rev_at_epoch": 87243,
        "meta_bstar": 0.0025604,
        "meta_mean_motion_dot": 9.914e-05,
        "meta_mean_motion_ddot": 0,
        "tle_line1": "1 34571U 93036VH  25343.25669105  .00009914  00000+0  25604-2 0  9993",
        "tle_line2": "2 34571  74.0386 188.9585 0066557 224.7562 134.8218 14.48721172872439"
      },
      "geometry": {
        "type": "Point",
        "coordinates": [
          -66.53861264200971,
          73.23742892555858
        ]
      }
    },
    {
      "type": "Feature",
      "properties": {
        "norad_id": 34572,
        "name": "COSMOS 2251 DEB",
        "group": "cosmos-2251-debris",
        "lat": -45.45175274735551,
        "lon": 101.45242890686824,
        "alt_km": 754.3059784791294,
        "timestamp": "2025-12-11T05:00:26.703012+00:00",
        "meta_object_name": "COSMOS 2251 DEB",
        "meta_object_id": "1993-036VJ",
        "meta_epoch": "2025-12-10T09:40:05.680992",
        "meta_mean_motion": 14.49931847,
        "meta_eccentricity": 0.00631641,
        "meta_inclination": 74.011,
        "meta_ra_of_asc_node": 119.902,
        "meta_arg_of_pericenter": 194.0511,
        "meta_mean_anomaly": 233.1496,
        "meta_ephemeris_type": 0,
        "meta_classification_type": "U",
        "meta_norad_cat_id": 34572,
        "meta_element_set_no": 999,
        "meta_rev_at_epoch": 87344,
        "meta_bstar": 0.0046719563,
        "meta_mean_motion_dot": 0.00018558,
        "meta_mean_motion_ddot": 0,
        "tle_line1": "1 34572U 93036VJ  25344.40284353  .00018558  00000+0  46720-2 0  9996",
        "tle_line2": "2 34572  74.0110 119.9020 0063164 194.0511 233.1496 14.49931847873443"
      },
      "geometry": {
        "type": "Point",
        "coordinates": [
          101.45242890686824,
          -45.45175274735551
        ]
      }
    },
    {
      "type": "Feature",
      "properties": {
        "norad_id": 34574,
        "name": "COSMOS 2251 DEB",
        "group": "cosmos-2251-debris",
        "lat": 73.51106087992687,
        "lon": 120.88804277072394,
        "alt_km": 607.079274951263,
        "timestamp": "2025-12-11T05:00:26.703022+00:00",
        "meta_object_name": "COSMOS 2251 DEB",
        "meta_object_id": "1993-036VL",
        "meta_epoch": "2025-12-10T10:43:39.407232",
        "meta_mean_motion": 14.70563466,
        "meta_eccentricity": 0.00668665,
        "meta_inclination": 74.069,
        "meta_ra_of_asc_node": 47.5738,
        "meta_arg_of_pericenter": 69.3099,
        "meta_mean_anomaly": 305.6088,
        "meta_ephemeris_type": 0,
        "meta_classification_type": "U",
        "meta_norad_cat_id": 34574,
        "meta_element_set_no": 999,
        "meta_rev_at_epoch": 88745,
        "meta_bstar": 0.0013396408,
        "meta_mean_motion_dot": 8.403e-05,
        "meta_mean_motion_ddot": 0,
        "tle_line1": "1 34574U 93036VL  25344.44698388  .00008403  00000+0  13396-2 0  9990",
        "tle_line2": "2 34574  74.0690  47.5738 0066866  69.3099 305.6088 14.70563466887457"
      },
      "geometry": {
        "type": "Point",
        "coordinates": [
          120.88804277072394,
          73.51106087992687
        ]
      }
    },
    {
      "type": "Feature",
      "properties": {
        "norad_id": 34576,
        "name": "COSMOS 2251 DEB",
        "group": "cosmos-2251-debris",
        "lat": 39.37913852157559,
        "lon": -52.49377662346075,
        "alt_km": 708.872532217867,
        "timestamp": "2025-12-11T05:00:26.703033+00:00",
        "meta_object_name": "COSMOS 2251 DEB",
        "meta_object_id": "1993-036VN",
        "meta_epoch": "2025-12-10T20:48:54.725184",
        "meta_mean_motion": 14.55400775,
        "meta_eccentricity": 0.00080181,
        "meta_inclination": 74.0338,
        "meta_ra_of_asc_node": 141.7437,
        "meta_arg_of_pericenter": 276.7745,
        "meta_mean_anomaly": 234.197,
        "meta_ephemeris_type": 0,
        "meta_classification_type": "U",
        "meta_norad_cat_id": 34576,
        "meta_element_set_no": 999,
        "meta_rev_at_epoch": 88439,
        "meta_bstar": 0.001328253,
        "meta_mean_motion_dot": 5.748e-05,
        "meta_mean_motion_ddot": 0,
        "tle_line1": "1 34576U 93036VN  25344.86730006  .00005748  00000+0  13283-2 0  9996",
        "tle_line2": "2 34576  74.0338 141.7437 0008018 276.7745 234.1970 14.55400775884390"
      },
      "geometry": {
        "type": "Point",
        "coordinates": [
          -52.49377662346075,
          39.37913852157559
        ]
      }
    },
    {
      "type": "Feature",
      "properties": {
        "norad_id": 34579,
        "name": "COSMOS 2251 DEB",
        "group": "cosmos-2251-debris",
        "lat": 49.89447306665742,
        "lon": -113.41046018680225,
        "alt_km": 745.0588836831621,
        "timestamp": "2025-12-11T05:00:26.703042+00:00",
        "meta_object_name": "COSMOS 2251 DEB",
        "meta_object_id": "1993-036VR",
        "meta_epoch": "2025-12-10T21:02:12.659424",
        "meta_mean_motion": 14.45299672,
        "meta_eccentricity": 0.00275753,
        "meta_inclination": 74.0529,
        "meta_ra_of_asc_node": 227.3618,
        "meta_arg_of_pericenter": 296.2863,
        "meta_mean_anomaly": 188.9226,
        "meta_ephemeris_type": 0,
        "meta_classification_type": "U",
        "meta_norad_cat_id": 34579,
        "meta_element_set_no": 999,
        "meta_rev_at_epoch": 88147,
        "meta_bstar": 0.00061037953,
        "meta_mean_motion_dot": 2.127e-05,
        "meta_mean_motion_ddot": 0,
        "tle_line1": "1 34579U 93036VR  25344.87653541  .00002127  00000+0  61038-3 0  9998",
        "tle_line2": "2 34579  74.0529 227.3618 0027575 296.2863 188.9226 14.45299672881471"
      },
      "geometry": {
        "type": "Point",
        "coordinates": [
          -113.41046018680225,
          49.89447306665742
        ]
      }
    },
    {
      "type": "Feature",
      "properties": {
        "norad_id": 34582,
        "name": "COSMOS 2251 DEB",
        "group": "cosmos-2251-debris",
        "lat": 1.2059044047228011,
        "lon": -84.42996547700707,
        "alt_km": 718.9993866886725,
        "timestamp": "2025-12-11T05:00:26.703052+00:00",
        "meta_object_name": "COSMOS 2251 DEB",
        "meta_object_id": "1993-036VU",
        "meta_epoch": "2025-12-10T19:01:14.159136",
        "meta_mean_motion": 14.43307635,
        "meta_eccentricity": 0.00477623,
        "meta_inclination": 74.02,
        "meta_ra_of_asc_node": 275.9979,
        "meta_arg_of_pericenter": 26.586,
        "meta_mean_anomaly": 333.7731,
        "meta_ephemeris_type": 0,
        "meta_classification_type": "U",
        "meta_norad_cat_id": 34582,
        "meta_element_set_no": 999,
        "meta_rev_at_epoch": 87919,
        "meta_bstar": 0.0012380094,
        "meta_mean_motion_dot": 4.205e-05,
        "meta_mean_motion_ddot": 0,
        "tle_line1": "1 34582U 93036VU  25344.79252499  .00004205  00000+0  12380-2 0  9994",
        "tle_line2": "2 34582  74.0200 275.9979 0047762  26.5860 333.7731 14.43307635879195"
      },
      "geometry": {
        "type": "Point",
        "coordinates": [
          -84.42996547700707,
          1.2059044047228011
        ]
      }
    }
  ]
}